{
  "type": "FeatureCollection",
  "features": [
    {
      "type": "Feature",
      "properties": {
        "norad_id": 31328,
        "name": "FENGYUN 1C DEB",
        "group": "fengyun-1c-debris",
        "lat": 61.18430000945305,
        "lon": -53.542884681284825,
        "alt_km": 852.7309481844113,
        "timestamp": "2025-12-14T11:29:50.342225+00:00",
        "meta_object_name": "FENGYUN 1C DEB",
        "meta_object_id": "1999-025BQG",
        "meta_epoch": "2025-12-12T08:47:04.591104",
        "meta_mean_motion": 14.28944572,
        "meta_eccentricity": 0.01035932,
        "meta_inclination": 98.4833,
        "meta_ra_of_asc_node": 320.1432,
        "meta_arg_of_pericenter": 217.5445,
        "meta_mean_anomaly": 141.8472,
        "meta_ephemeris_type": 0,
        "meta_classification_type": "U",
        "meta_norad_cat_id": 31328,
        "meta_element_set_no": 999,
        "meta_rev_at_epoch": 97457,
        "meta_bstar": 0.00012675973,
        "meta_mean_motion_dot": 2.96e-06,
        "meta_mean_motion_ddot": 0,
        "tle_line1": "1 31328U 99025BQG 25346.36602536  .00000296  00000+0  12676-3 0  9994",
        "tle_line2": "2 31328  98.4833 320.1432 0103593 217.5445 141.8472 14.28944572974573"
      },
      "geometry": {
        "type": "Point",
        "coordinates": [
          -53.542884681284825,
          61.18430000945305
        ]
      }
    },
    {
      "type": "Feature",
      "properties": {
        "norad_id": 31330,
        "name": "FENGYUN 1C DEB",
        "group": "fengyun-1c-debris",
        "lat": -21.807709338633018,
        "lon": 156.7873738935058,
        "alt_km": 538.1788577343887,
        "timestamp": "2025-12-14T11:29:50.342235+00:00",
        "meta_object_name": "FENGYUN 1C DEB",
        "meta_object_id": "1999-025BQJ",
        "meta_epoch": "2025-12-13T10:17:59.157024",
        "meta_mean_motion": 15.10992329,
        "meta_eccentricity": 0.00046076,
        "meta_inclination": 98.8853,
        "meta_ra_of_asc_node": 151.98,
        "meta_arg_of_pericenter": 225.6133,
        "meta_mean_anomaly": 163.781,
        "meta_ephemeris_type": 0,
        "meta_classification_type": "U",
        "meta_norad_cat_id": 31330,
        "meta_element_set_no": 999,
        "meta_rev_at_epoch": 97140,
        "meta_bstar": 0.016076755,
        "meta_mean_motion_dot": 0.00278919,
        "meta_mean_motion_ddot": 0,
        "tle_line1": "1 31330U 99025BQJ 25347.42915691  .00278919  00000+0  16077-1 0  9990",
        "tle_line2": "2 31330  98.8853 151.9800 0004607 225.6133 163.7810 15.10992329971404"
      },
      "geometry": {
        "type": "Point",
        "coordinates": [
          156.7873738935058,
          -21.807709338633018
        ]
      }
    },
    {
      "type": "Feature",
      "properties": {
        "norad_id": 31331,
        "name": "FENGYUN 1C DEB",
        "group": "fengyun-1c-debris",
        "lat": -45.329246100511256,
        "lon": -174.83093388912323,
        "alt_km": 872.4301657995657,
        "timestamp": "2025-12-14T11:29:50.342245+00:00",
        "meta_object_name": "FENGYUN 1C DEB",
        "meta_object_id": "1999-025BQK",
        "meta_epoch": "2025-12-11T06:59:13.035840",
        "meta_mean_motion": 14.00618538,
        "meta_eccentricity": 0.005317,
        "meta_inclination": 98.8724,
        "meta_ra_of_asc_node": 11.1656,
        "meta_arg_of_pericenter": 186.5995,
        "meta_mean_anomaly": 173.4476,
        "meta_ephemeris_type": 0,
        "meta_classification_type": "U",
        "meta_norad_cat_id": 31331,
        "meta_element_set_no": 999,
        "meta_rev_at_epoch": 63836,
        "meta_bstar": 0.00045408515,
        "meta_mean_motion_dot": 6.41e-06,
        "meta_mean_motion_ddot": 0,
        "tle_line1": "1 31331U 99025BQK 25345.29112310  .00000641  00000+0  45409-3 0  9999",
        "tle_line2": "2 31331  98.8724  11.1656 0053170 186.5995 173.4476 14.00618538638364"
      },
      "geometry": {
        "type": "Point",
        "coordinates": [
          -174.83093388912323,
          -45.329246100511256
        ]
      }
    },
    {
      "type": "Feature",
      "properties": {
        "norad_id": 31332,
        "name": "FENGYUN 1C DEB",
        "group": "fengyun-1c-debris",
        "lat": 64.13262902357276,
        "lon": -162.81622548485444,
        "alt_km": 849.1887421271795,
        "timestamp": "2025-12-14T11:29:50.342255+00:00",
        "meta_object_name": "FENGYUN 1C DEB",
        "meta_object_id": "1999-025BQL",
        "meta_epoch": "2025-12-12T23:23:00.295872",
        "meta_mean_motion": 14.11844116,
        "meta_eccentricity": 0.00498817,
        "meta_inclination": 98.7056,
        "meta_ra_of_asc_node": 357.3023,
        "meta_arg_of_pericenter": 24.5239,
        "meta_mean_anomaly": 5.4896,
        "meta_ephemeris_type": 0,
        "meta_classification_type": "U",
        "meta_norad_cat_id": 31332,
        "meta_element_set_no": 999,
        "meta_rev_at_epoch": 95975,
        "meta_bstar": 0.0014459486,
        "meta_mean_motion_dot": 2.628e-05,
        "meta_mean_motion_ddot": 0,
        "tle_line1": "1 31332U 99025BQL 25346.97430898  .00002628  00000+0  14459-2 0  9997",
        "tle_line2": "2 31332  98.7056 357.3023 0049881  24.5239   5.4896 14.11844116959755"
      },
      "geometry": {
        "type": "Point",
        "coordinates": [
          -162.81622548485444,
          64.13262902357276
        ]
      }
    },
    {
      "type": "Feature",
      "properties": {
        "norad_id": 31333,
        "name": "FENGYUN 1C DEB",
        "group": "fengyun-1c-debris",
        "lat": 60.05810348029475,
        "lon": -11.928196011342333,
        "alt_km": 742.7059077645572,
        "timestamp": "2025-12-14T11:29:50.342265+00:00",
        "meta_object_name": "FENGYUN 1C DEB",
        "meta_object_id": "1999-025BQM",
        "meta_epoch": "2025-12-12T18:49:01.084512",
        "meta_mean_motion": 14.26541083,
        "meta_eccentricity": 0.00986515,
        "meta_inclination": 98.4285,
        "meta_ra_of_asc_node": 1.3563,
        "meta_arg_of_pericenter": 26.4018,
        "meta_mean_anomaly": 334.2142,
        "meta_ephemeris_type": 0,
        "meta_classification_type": "U",
        "meta_norad_cat_id": 31333,
        "meta_element_set_no": 999,
        "meta_rev_at_epoch": 96592,
        "meta_bstar": 0.0010969525,
        "meta_mean_motion_dot": 2.744e-05,
        "meta_mean_motion_ddot": 0,
        "tle_line1": "1 31333U 99025BQM 25346.78404033  .00002744  00000+0  10970-2 0  9992",
        "tle_line2": "2 31333  98.4285   1.3563 0098651  26.4018 334.2142 14.26541083965923"
      },
      "geometry": {
        "type": "Point",
        "coordinates": [
          -11.928196011342333,
          60.05810348029475
        ]
      }
    },
    {
      "type": "Feature",
      "properties": {
        "norad_id": 31336,
        "name": "FENGYUN 1C DEB",
        "group": "fengyun-1c-debris",
        "lat": -62.55490256746964,
        "lon": -152.98027149248176,
        "alt_km": 813.0164802374711,
        "timestamp": "2025-12-14T11:29:50.342275+00:00",
        "meta_object_name": "FENGYUN 1C DEB",
        "meta_object_id": "1999-025BQQ",
        "meta_epoch": "2025-12-12T15:40:36.276096",
        "meta_mean_motion": 14.38700612,
        "meta_eccentricity": 0.00939779,
        "meta_inclination": 98.4653,
        "meta_ra_of_asc_node": 41.8827,
        "meta_arg_of_pericenter": 118.8628,
        "meta_mean_anomaly": 32.7927,
        "meta_ephemeris_type": 0,
        "meta_classification_type": "U",
        "meta_norad_cat_id": 31336,
        "meta_element_set_no": 999,
        "meta_rev_at_epoch": 97789,
        "meta_bstar": 0.00049475681,
        "meta_mean_motion_dot": 1.553e-05,
        "meta_mean_motion_ddot": 0,
        "tle_line1": "1 31336U 99025BQQ 25346.65319764  .00001553  00000+0  49476-3 0  9998",
        "tle_line2": "2 31336  98.4653  41.8827 0093977 118.8628  32.7927 14.38700612977894"
      },
      "geometry": {
        "type": "Point",
        "coordinates": [
          -152.98027149248176,
          -62.55490256746964
        ]
      }
    },
    {
      "type": "Feature",
      "properties": {
        "norad_id": 31338,
        "name": "FENGYUN 1C DEB",
        "group": "fengyun-1c-debris",
        "lat": 63.99791121804052,
        "lon": 170.1324785016436,
        "alt_km": 776.1061960512498,
        "timestamp": "2025-12-14T11:29:50.342286+00:00",
        "meta_object_name": "FENGYUN 1C DEB",
        "meta_object_id": "1999-025BQS",
        "meta_epoch": "2025-12-12T06:47:42.135648",
        "meta_mean_motion": 14.20717591,
        "meta_eccentricity": 0.00716141,
        "meta_inclination": 98.7168,
        "meta_ra_of_asc_node": 186.2993,
        "meta_arg_of_pericenter": 110.4179,
        "meta_mean_anomaly": 250.4707,
        "meta_ephemeris_type": 0,
        "meta_classification_type": "U",
        "meta_norad_cat_id": 31338,
        "meta_element_set_no": 999,
        "meta_rev_at_epoch": 63651,
        "meta_bstar": 0.0038476398,
        "meta_mean_motion_dot": 8.479e-05,
        "meta_mean_motion_ddot": 0,
        "tle_line1": "1 31338U 99025BQS 25346.28312657  .00008479  00000+0  38476-2 0  9994",
        "tle_line2": "2 31338  98.7168 186.2993 0071614 110.4179 250.4707 14.20717591636512"
      },
      "geometry": {
        "type": "Point",
        "coordinates": [
          170.1324785016436,
          63.99791121804052
        ]
      }
    }
  ]
}